{"type": "FeatureCollection", "features": [ {"type": "Feature", "properties": {"norad_id": 66599, "name": "STARLINK-35930", "group": "last-30-days", "lat": -38.041554260531825, "lon": 78.25266778573783, "alt_km": 417.186124284749, "timestamp": "2025-12-11T07:02:22.478019+00:00", "meta": {"OBJECT_NAME": "STARLINK-35930", "OBJECT_ID": "2025-270M", "EPOCH": "2025-12-10T22:00:03.000096", "MEAN_MOTION": 15.50601388, "ECCENTRICITY": 0.00017788, "INCLINATION": 42.9996, "RA_OF_ASC_NODE": 203.3485, "ARG_OF_PERICENTER": 262.4288, "MEAN_ANOMALY": 37.4208, "EPHEMERIS_TYPE": 0, "CLASSIFICATION_TYPE": "U", "NORAD_CAT_ID": 66599, "ELEMENT_SET_NO": 999, "REV_AT_EPOCH": 410, "BSTAR": -0.0015458411, "MEAN_MOTION_DOT": -0.00090067, "MEAN_MOTION_DDOT": 0}, "tle": {"line1": "1 66599U 25270M   25344.91670139 -.00090067  00000+0 -15458-2 0  9993", "line2": "2 66599  42.9996 203.3485 0001778 262.4288  37.4208 15.50601388  4102"}}, "geometry": {"type": "Point", "coordinates": [78.25266778573783, -38.041554260531825]}}, {"type": "Feature", "properties": {"norad_id": 66600, "name": "STARLINK-35980", "group": "last-30-days", "lat": -38.728213615115514, "lon": 80.52653869179575, "alt_km": 416.8447985890234, "timestamp": "2025-12-11T07:02:22.478029+00:00", "meta": {"OBJECT_NAME": "STARLINK-35980", "OBJECT_ID": "2025-270N", "EPOCH": "2025-12-10T22:00:03.000096", "MEAN_MOTION": 15.50593166, "ECCENTRICITY": 0.00022968, "INCLINATION": 42.9996, "RA_OF_ASC_NODE": 203.3432, "ARG_OF_PERICENTER": 259.4269, "MEAN_ANOMALY": 42.3442, "EPHEMERIS_TYPE": 0, "CLASSIFICATION_TYPE": "U", "NORAD_CAT_ID": 66600, "ELEMENT_SET_NO": 999, "REV_AT_EPOCH": 400, "BSTAR": -0.0013389856, "MEAN_MOTION_DOT": -0.0007816, "MEAN_MOTION_DDOT": 0}, "tle": {"line1": "1 66600U 25270N   25344.91670139 -.00078160  00000+0 -13390-2 0  9999", "line2": "2 66600  42.9996 203.3432 0002296 259.4269  42.3442 15.50593166  4006"}}, "geometry": {"type": "Point", "coordinates": [80.52653869179575, -38.728213615115514]}}, {"type": "Feature", "properties": {"norad_id": 66601, "name": "STARLINK-35978", "group": "last-30-days", "lat": -39.372363443530006, "lon": 82.8532253435862, "alt_km": 417.1114785853142, "timestamp": "2025-12-11T07:02:22.478039+00:00", "meta": {"OBJECT_NAME": "STARLINK-35978", "OBJECT_ID": "2025-270P", "EPOCH": "2025-12-10T22:00:03.000096", "MEAN_MOTION": 15.50617147, "ECCENTRICITY": 0.00019009, "INCLINATION": 42.9997, "RA_OF_ASC_NODE": 203.3386, "ARG_OF_PERICENTER": 253.5243, "MEAN_ANOMALY": 50.154, "EPHEMERIS_TYPE": 0, "CLASSIFICATION_TYPE": "U", "NORAD_CAT_ID": 66601, "ELEMENT_SET_NO": 999, "REV_AT_EPOCH": 394, "BSTAR": -0.0019891372, "MEAN_MOTION_DOT": -0.00115492, "MEAN_MOTION_DDOT": 0}, "tle": {"line1": "1 66601U 25270P   25344.91670139 -.00115492  00000+0 -19891-2 0  9992", "line2": "2 66601  42.9997 203.3386 0001900 253.5243  50.1540 15.50617147  3948"}}, "geometry": {"type": "Point", "coordinates": [82.8532253435862, -39.372363443530006]}}, {"type": "Feature", "properties": {"norad_id": 66602, "name": "STARLINK-36050", "group": "last-30-days", "lat": -39.96715691019191, "lon": 85.21453883006852, "alt_km": 417.10225067097144, "timestamp": "2025-12-11T07:02:22.478052+00:00", "meta": {"OBJECT_NAME": "STARLINK-36050", "OBJECT_ID": "2025-270Q", "EPOCH": "2025-12-10T22:00:03.000096", "MEAN_MOTION": 15.50549751, "ECCENTRICITY": 0.00017483, "INCLINATION": 42.9995, "RA_OF_ASC_NODE": 203.3339, "ARG_OF_PERICENTER": 259.4033, "MEAN_ANOMALY": 46.204, "EPHEMERIS_TYPE": 0, "CLASSIFICATION_TYPE": "U", "NORAD_CAT_ID": 66602, "ELEMENT_SET_NO": 999, "REV_AT_EPOCH": 400, "BSTAR": 0.00075685653, "MEAN_MOTION_DOT": 0.00044265, "MEAN_MOTION_DDOT": 0}, "tle": {"line1": "1 66602U 25270Q   25344.91670139  .00044265  00000+0  75686-3 0  9995", "line2": "2 66602  42.9995 203.3339 0001748 259.4033  46.2040 15.50549751  4001"}}, "geometry": {"type": "Point", "coordinates": [85.21453883006852, -39.96715691019191]}}, {"type": "Feature", "properties": {"norad_id": 66603, "name": "STARLINK-36048", "group": "last-30-days", "lat": -40.498325440831216, "lon": 87.54621723293576, "alt_km": 417.2552307019123, "timestamp": "2025-12-11T07:02:22.478064+00:00", "meta": {"OBJECT_NAME": "STARLINK-36048", "OBJECT_ID": "2025-270R", "EPOCH": "2025-12-10T22:00:03.000096", "MEAN_MOTION": 15.50486845, "ECCENTRICITY": 0.00016082, "INCLINATION": 42.9995, "RA_OF_ASC_NODE": 203.3289, "ARG_OF_PERICENTER": 236.6803, "MEAN_ANOMALY": 70.8325, "EPHEMERIS_TYPE": 0, "CLASSIFICATION_TYPE": "U", "NORAD_CAT_ID": 66603, "ELEMENT_SET_NO": 999, "REV_AT_EPOCH": 400, "BSTAR": 0.0019575571, "MEAN_MOTION_DOT": 0.00115832, "MEAN_MOTION_DDOT": 0}, "tle": {"line1": "1 66603U 25270R   25344.91670139  .00115832  00000+0  19576-2 0  9990", "line2": "2 66603  42.9995 203.3289 0001608 236.6803  70.8325 15.50486845  4006"}}, "geometry": {"type": "Point", "coordinates": [87.54621723293576, -40.498325440831216]}}, {"type": "Feature", "properties": {"norad_id": 66604, "name": "STARLINK-35977", "group": "last-30-days", "lat": -40.996282395435394, "lon": 89.98913685449283, "alt_km": 417.283664804866, "timestamp": "2025-12-11T07:02:22.478074+00:00", "meta": {"OBJECT_NAME": "STARLINK-35977", "OBJECT_ID": "2025-270S", "EPOCH": "2025-12-10T22:00:03.000096", "MEAN_MOTION": 15.50484684, "ECCENTRICITY": 0.00015264, "INCLINATION": 42.9996, "RA_OF_ASC_NODE": 203.3242, "ARG_OF_PERICENTER": 240.698, "MEAN_ANOMALY": 68.7307, "EPHEMERIS_TYPE": 0, "CLASSIFICATION_TYPE": "U", "NORAD_CAT_ID": 66604, "ELEMENT_SET_NO": 999, "REV_AT_EPOCH": 410, "BSTAR": 0.0023170806, "MEAN_MOTION_DOT": 0.00137542, "MEAN_MOTION_DDOT": 0}, "tle": {"line1": "1 66604U 25270S   25344.91670139  .00137542  00000+0  23171-2 0  9999", "line2": "2 66604  42.9996 203.3242 0001526 240.6980  68.7307 15.50484684  4103"}}, "geometry": {"type": "Point", "coordinates": [89.98913685449283, -40.996282395435394]}}, {"type": "Feature", "properties": {"norad_id": 66605, "name": "STARLINK-36052", "group": "last-30-days", "lat": -41.450318253448174, "lon": 92.51958100449956, "alt_km": 417.1888831961196, "timestamp": "2025-12-11T07:02:22.478084+00:00", "meta": {"OBJECT_NAME": "STARLINK-36052", "OBJECT_ID": "2025-270T", "EPOCH": "2025-12-10T22:00:03.000096", "MEAN_MOTION": 15.50606057, "ECCENTRICITY": 0.00018919, "INCLINATION": 42.9994, "RA_OF_ASC_NODE": 203.3186, "ARG_OF_PERICENTER": 254.4838, "MEAN_ANOMALY": 56.8666, "EPHEMERIS_TYPE": 0, "CLASSIFICATION_TYPE": "U", "NORAD_CAT_ID": 66605, "ELEMENT_SET_NO": 999, "REV_AT_EPOCH": 410, "BSTAR": -0.0016678236, "MEAN_MOTION_DOT": -0.00097079, "MEAN_MOTION_DDOT": 0}, "tle": {"line1": "1 66605U 25270T   25344.91670139 -.00097079  00000+0 -16678-2 0  9996", "line2": "2 66605  42.9994 203.3186 0001891 254.4838  56.8666 15.50606057  4105"}}, "geometry": {"type": "Point", "coordinates": [92.51958100449956, -41.450318253448174]}}, {"type": "Feature", "properties": {"norad_id": 66606, "name": "STARLINK-36063", "group": "last-30-days", "lat": -42.16741137898749, "lon": 97.50639533932363, "alt_km": 417.406367974937, "timestamp": "2025-12-11T07:02:22.478095+00:00", "meta": {"OBJECT_NAME": "STARLINK-36063", "OBJECT_ID": "2025-270U", "EPOCH": "2025-12-10T22:00:03.000096", "MEAN_MOTION": 15.50532704, "ECCENTRICITY": 0.00015772, "INCLINATION": 42.9996, "RA_OF_ASC_NODE": 203.3094, "ARG_OF_PERICENTER": 238.7482, "MEAN_ANOMALY": 76.4238, "EPHEMERIS_TYPE": 0, "CLASSIFICATION_TYPE": "U", "NORAD_CAT_ID": 66606, "ELEMENT_SET_NO": 999, "REV_AT_EPOCH": 410, "BSTAR": 0.00065668936, "MEAN_MOTION_DOT": 0.00038308, "MEAN_MOTION_DDOT": 0}, "tle": {"line1": "1 66606U 25270U   25344.91670139  .00038308  00000+0  65669-3 0  9990", "line2": "2 66606  42.9996 203.3094 0001577 238.7482  76.4238 15.50532704  4107"}}, "geometry": {"type": "Point", "coordinates": [97.50639533932363, -42.16741137898749]}}, {"type": "Feature", "properties": {"norad_id": 66607, "name": "STARLINK-35993", "group": "last-30-days", "lat": -41.83917466819481, "lon": 95.0217787327523, "alt_km": 417.23712059077207, "timestamp": "2025-12-11T07:02:22.478104+00:00", "meta": {"OBJECT_NAME": "STARLINK-35993", "OBJECT_ID": "2025-270V", "EPOCH": "2025-12-10T22:00:03.000096", "MEAN_MOTION": 15.5060124, "ECCENTRICITY": 0.00018376, "INCLINATION": 42.9995, "RA_OF_ASC_NODE": 203.3142, "ARG_OF_PERICENTER": 255.2193, "MEAN_ANOMALY": 58.0488, "EPHEMERIS_TYPE": 0, "CLASSIFICATION_TYPE": "U", "NORAD_CAT_ID": 66607, "ELEMENT_SET_NO": 999, "REV_AT_EPOCH": 400, "BSTAR": -0.0015215355, "MEAN_MOTION_DOT": -0.00088672, "MEAN_MOTION_DDOT": 0}, "tle": {"line1": "1 66607U 25270V   25344.91670139 -.00088672  00000+0 -15215-2 0  9993", "line2": "2 66607  42.9995 203.3142 0001837 255.2193  58.0488 15.50601240  4007"}}, "geometry": {"type": "Point", "coordinates": [95.0217787327523, -41.83917466819481]}}, {"type": "Feature", "properties": {"norad_id": 66608, "name": "STARLINK-36036", "group": "last-30-days", "lat": -42.44451145560123, "lon": 100.04911015900453, "alt_km": 417.38330994943135, "timestamp": "2025-12-11T07:02:22.478115+00:00", "meta": {"OBJECT_NAME": "STARLINK-36036", "OBJECT_ID": "2025-270W", "EPOCH": "2025-12-10T22:00:03.000096", "MEAN_MOTION": 15.50486248, "ECCENTRICITY": 0.00015644, "INCLINATION": 42.9996, "RA_OF_ASC_NODE": 203.305, "ARG_OF_PERICENTER": 240.7978, "MEAN_ANOMALY": 76.3029, "EPHEMERIS_TYPE": 0, "CLASSIFICATION_TYPE": "U", "NORAD_CAT_ID": 66608, "ELEMENT_SET_NO": 999, "REV_AT_EPOCH": 394, "BSTAR": 0.0020454237, "MEAN_MOTION_DOT": 0.00121127, "MEAN_MOTION_DDOT": 0}, "tle": {"line1": "1 66608U 25270W   25344.91670139  .00121127  00000+0  20454-2 0  9996", "line2": "2 66608  42.9996 203.3050 0001564 240.7978  76.3029 15.50486248  3949"}}, "geometry": {"type": "Point", "coordinates": [100.04911015900453, -42.44451145560123]}}]}